{"type":"FeatureCollection","features":[{"type":"Feature","id":"node/236578383","properties":{"name":"御徒町","name:de":"Okachimachi","name:en":"Okachimachi","name:it":"Okachimachi","name:ja":"御徒町","name:ja-Hira":"おかちまち","name:ja-Latn":"Okachimachi","name:ko":"오카치마치","name:ru":"Окатимати","name:th":"โอคาจิมาจิ","operator":"東日本旅客鉄道","public_transport":"station","railway":"station","train":"yes","wikidata":"Q801296","wikipedia":"ja:御徒町駅","id":"node/236578383"},"geometry":{"type":"Point","coordinates":[139.7746303,35.7069531]}},{"type":"Feature","id":"node/236578444","properties":{"highspeed":"yes","name":"上野","name:de":"Ueno (Tōhoku-Hauptlinie)","name:en":"Ueno","name:es":"Ueno","name:fr":"Ueno","name:it":"Ueno","name:ja":"上野","name:ko":"우에노","name:ru":"Уэно","name:th":"อุเอโนะ","public_transport":"station","railway":"station","source":"KSJ2","toilets:wheelchair":"yes","train":"yes","wheelchair":"yes","wikidata":"Q801551","wikipedia":"ja:上野駅","id":"node/236578444"},"geometry":{"type":"Point","coordinates":[139.7766557,35.7133757]}},{"type":"Feature","id":"node/236578577","properties":{"name":"鶯谷","name:en":"Uguisudani","name:es":"Uguisudani","name:fr":"Uguisudani","name:it":"Uguisudani","name:ja":"鶯谷","name:ja-Hira":"うぐいすだに","name:ja-Latn":"Uguisudani","name:ko":"우구이스다니","name:ru":"Угуисудани","operator":"東日本旅客鉄道","public_transport":"station","railway":"station","toilets:wheelchair":"yes","train":"yes","wheelchair":"yes","wikidata":"Q801546","wikipedia":"ja:鶯谷駅","id":"node/236578577"},"geometry":{"type":"Point","coordinates":[139.7779486,35.7216638]}},{"type":"Feature","id":"node/2407466991","properties":{"addr:block_number":"60","addr:country":"JP","addr:neighbourhood":"1丁目","addr:postcode":"110-0007","addr:province":"東京都","addr:quarter":"上野公園","addr:suburb":"台東区","name":"京成上野","name:en":"Keisei-Ueno","name:es":"Keisei-Ueno","name:it":"Keisei Ueno","name:ja":"京成上野","name:ja-Latn":"Keisei-Ueno","name:ko":"게이세이우에노","network":"京成","operator":"京成電鉄","operator:en":"Keisei Electric Railway","phone":"+81 3 3831 2528","platforms":"2","public_transport":"station","railway":"station","ref":"KS01","toilets:wheelchair":"yes","wheelchair":"yes","wikidata":"Q907059","wikipedia":"ja:京成上野駅","id":"node/2407466991"},"geometry":{"type":"Point","coordinates":[139.7735044,35.7109406]}},{"type":"Feature","id":"node/3666779220","properties":{"alt_name":"東武 浅草駅","name":"浅草","name:en":"Asakusa","name:es":"Asakusa","name:ja":"浅草","name:ja_kana":"あさくさ","name:ja_rm":"Asakusa","name:ko":"아사쿠사 역","name:ru":"Асакуса","name:yue":"淺草","name:zh":"浅草","note":"National-Land Numerical Information (Railway) 2007, MLIT Japan","operator":"東武鉄道","public_transport":"station","railway":"station","ref":"TS01","source":"KSJ2","source_ref":"http://nlftp.mlit.go.jp/ksj/jpgis/datalist/KsjTmplt-N02-v1_1.html","wikidata":"Q800405","wikipedia":"ja:浅草駅","id":"node/3666779220"},"geometry":{"type":"Point","coordinates":[139.7983683,35.7119514]}},{"type":"Feature","id":"node/5411585752","properties":{"name":"仲御徒町","name:en":"Naka-okachimachi","name:es":"Naka-okachimachi","name:ja":"仲御徒町","name:ja_kana":"なかおかちまち","name:ko":"나카오카치마치","operator":"東京地下鉄","public_transport":"station","railway":"station","station":"subway","subway":"yes","wikidata":"Q1072993","wikipedia":"ja:仲御徒町駅","id":"node/5411585752"},"geometry":{"type":"Point","coordinates":[139.7761952,35.7064914]}},{"type":"Feature","id":"node/6199814789","properties":{"name":"上野御徒町","name:en":"Ueno-okachimachi","name:es":"Ueno-okachimachi","name:ja":"上野御徒町","name:ja_kana":"うえのおかちまち","name:ja_rm":"Ueno Okachimachi","name:ko":"우에노오카치마치","network":"都営地下鉄","network:en":"Toei subway","operator":"東京都交通局","operator:en":"Toei","operator:wikidata":"Q1377135","public_transport":"station","railway":"station","ref":"E09","station":"subway","subway":"yes","wikidata":"Q80555","wikipedia":"ja:上野御徒町駅","id":"node/6199814789"},"geometry":{"type":"Point","coordinates":[139.7732996,35.7079766]}},{"type":"Feature","id":"node/6209017478","properties":{"name":"新御徒町","name:en":"Shin-okachimachi","name:es":"Shin-Okachimachi","name:ja":"新御徒町","name:ja_kana":"しんおかちまち","name:ja_rm":"Shin Okachimachi","name:ko":"신오카치마치","network":"都営地下鉄","network:en":"Toei subway","operator":"東京都交通局","operator:en":"Toei","operator:wikidata":"Q1377135","public_transport":"station","railway":"station","ref":"E10","station":"subway","subway":"yes","wikidata":"Q80540","wikipedia":"ja:新御徒町駅","id":"node/6209017478"},"geometry":{"type":"Point","coordinates":[139.7818428,35.7070597]}},{"type":"Feature","id":"node/6209071059","properties":{"name":"新御徒町","name:en":"Shin-Okachimachi","name:es":"Shin-Okachimachi","name:ja":"新御徒町","name:ja_kana":"しんおかちまち","name:ja_rm":"Shin Okachimachi","name:ko":"신오카치마치","operator":"首都圏新都市鉄道","platforms":"1","public_transport":"station","railway":"station","ref":"02","wikidata":"Q80540","wikipedia":"ja:新御徒町駅","id":"node/6209071059"},"geometry":{"type":"Point","coordinates":[139.7820289,35.7070114]}},{"type":"Feature","id":"node/6237151013","properties":{"colour":"orange","name":"浅草","name:en":"Asakusa","name:es":"Asakusa","name:fr":"Asakusa","name:ja":"浅草","name:ja_kana":"あさくさ","name:ja_rm":"Asakusa","name:ko":"아사쿠사 역","name:ru":"Асакуса","name:zh":"浅草","note":"銀座線","operator":"東京地下鉄","public_transport":"station","railway":"station","ref":"G19","station":"subway","subway":"yes","transport":"subway","wikidata":"Q800405","wikipedia":"ja:浅草駅","id":"node/6237151013"},"geometry":{"type":"Point","coordinates":[139.7978163,35.7108423]}},{"type":"Feature","id":"node/7412555523","properties":{"name":"浅草","name:en":"Asakusa","name:es":"Asakusa Tsukuba","name:ja":"浅草","name:ja_kana":"あさくさ","name:ja_rm":"Asakusa","name:ko":"아사쿠사","operator":"首都圏新都市鉄道","public_transport":"station","railway":"station","ref":"03","wikidata":"Q800405","wikipedia":"ja:浅草駅","id":"node/7412555523"},"geometry":{"type":"Point","coordinates":[139.792416,35.7136174]}},{"type":"Feature","id":"node/7786715956","properties":{"colour":"orange","name":"上野広小路","name:en":"Ueno-hirokoji","name:es":"Ueno-hirokoji","name:ja":"上野広小路","name:ja_kana":"うえのひろこうじ","name:ja_rm":"Ueno Hirokōji","name:ko":"우에노히로코지","name:ru":"Уэно Хирокодзи","name:zh":"上野廣小路","operator":"東京地下鉄","public_transport":"station","railway":"station","ref":"G15","station":"subway","subway":"yes","transport":"subway","wheelchair":"yes","wikidata":"Q1156446","wikipedia":"ja:上野広小路駅","id":"node/7786715956"},"geometry":{"type":"Point","coordinates":[139.7729909,35.7078328]}},{"type":"Feature","id":"node/7786715957","properties":{"colour":"orange","name":"上野","name:en":"Ueno","name:es":"Ueno","name:fr":"Ueno","name:it":"Ueno","name:ja":"上野","name:ja-Hira":"うえの","name:ja-Latn":"Ueno","name:ko":"우에노","name:ru":"Уэно","name:zh":"上野","operator":"東京地下鉄","public_transport":"station","railway":"station","ref":"G16 H18","station":"subway","subway":"yes","wikidata":"Q801551","wikipedia":"ja:上野駅","id":"node/7786715957"},"geometry":{"type":"Point","coordinates":[139.7761542,35.7117081]}},{"type":"Feature","id":"node/7786715958","properties":{"colour":"orange","name":"稲荷町","name:en":"Inaricho","name:es":"Inaricho","name:ja":"稲荷町","name:ja_kana":"いなりちょう","name:ja_rm":"Inarichō","name:ko":"이나리초","name:ru":"Инаритё","name:zh":"稲荷町","operator":"東京地下鉄","public_transport":"station","railway":"station","ref":"G17","station":"subway","subway":"yes","transport":"subway","wikidata":"Q347996","wikipedia":"ja:稲荷町駅 (東京都)","id":"node/7786715958"},"geometry":{"type":"Point","coordinates":[139.7826851,35.7113867]}},{"type":"Feature","id":"node/7786715959","properties":{"colour":"orange","name":"田原町","name:en":"Tawaramachi","name:es":"Tawaramachi","name:ja":"田原町","name:ja_kana":"たわらまち","name:ja_rm":"Tawaramachi","name:ko":"다와라마치 역 (도쿄 도)","name:ru":"Таварамати","name:zh":"田原町","network":"東京メトロ","operator":"東京地下鉄","public_transport":"station","railway":"station","ref":"G18","start_date":"1927","station":"subway","subway":"yes","transport":"subway","wheelchair":"yes","wikidata":"Q1196090","wikipedia":"ja:田原町駅 (東京都)","id":"node/7786715959"},"geometry":{"type":"Point","coordinates":[139.7907747,35.709842]}},{"type":"Feature","id":"node/7786715981","properties":{"name":"上野","name:en":"Ueno","name:es":"Ueno","name:fr":"Ueno","name:it":"Ueno","name:ja":"上野","name:ja-Hira":"うえの","name:ja-Latn":"Ueno","name:ko":"우에노","name:ru":"Уэно","operator":"東京地下鉄","public_transport":"station","railway":"station","ref":"H18","station":"subway","subway":"yes","wikidata":"Q801551","wikipedia":"ja:上野駅","id":"node/7786715981"},"geometry":{"type":"Point","coordinates":[139.7775694,35.7118212]}},{"type":"Feature","id":"node/7786715982","properties":{"colour":"gray","name":"入谷","name:en":"Iriya","name:ja":"入谷","name:ja_kana":"いりや","name:ja_rm":"Iriya","name:ko":"이리야","name:ru":"Ирия","operator":"東京地下鉄","public_transport":"station","railway":"station","ref":"H19","station":"subway","subway":"yes","transport":"subway","wikidata":"Q1073228","wikipedia":"ja:入谷駅 (東京都)","id":"node/7786715982"},"geometry":{"type":"Point","coordinates":[139.7845821,35.720709]}},{"type":"Feature","id":"node/7786715983","properties":{"colour":"gray","name":"三ノ輪","name:en":"Minowa","name:fr":"Minowa","name:ja":"三ノ輪","name:ja_kana":"みのわ","name:ja_rm":"Minowa","name:ko":"미노와","name:ru":"Минова","operator":"東京地下鉄","public_transport":"station","railway":"station","ref":"H20","station":"subway","subway":"yes","transport":"subway","wheelchair":"yes","wikidata":"Q1072979","wikipedia":"ja:三ノ輪駅","id":"node/7786715983"},"geometry":{"type":"Point","coordinates":[139.7913004,35.7295502]}},{"type":"Feature","id":"node/7791591075","properties":{"name":"浅草橋","name:en":"Asakusabashi","name:ja":"浅草橋","name:ja_kana":"あさくさばし","name:ja_rm":"Asakusabashi","name:ko":"아사쿠사바시","name:ru":"Асакусабаси","name:zh":"淺草橋","network":"都営地下鉄","network:en":"Toei subway","operator":"東京都交通局","operator:en":"Toei","operator:wikidata":"Q1377135","public_transport":"station","railway":"station","ref":"A16","station":"subway","subway":"yes","wikidata":"Q800404","wikipedia":"ja:浅草橋駅","id":"node/7791591075"},"geometry":{"type":"Point","coordinates":[139.7863101,35.6973915]}},{"type":"Feature","id":"node/7791591076","properties":{"name":"蔵前","name:en":"Kuramae","name:es":"Kuramae","name:ja":"蔵前","name:ja_kana":"くらまえ","name:ja_rm":"Kuramae","name:ko":"구라마에","name:ru":"Курамаэ","name:zh":"藏前","network":"都営地下鉄","network:en":"Toei subway","operator":"東京都交通局","operator:en":"Toei","operator:wikidata":"Q1377135","public_transport":"station","railway":"station","ref":"A17","station":"subway","subway":"yes","wikidata":"Q112348","wikipedia":"ja:蔵前駅","id":"node/7791591076"},"geometry":{"type":"Point","coordinates":[139.790939,35.7032122]}},{"type":"Feature","id":"node/7791605886","properties":{"name":"浅草","name:en":"Asakusa","name:it":"Asakusa","name:ja":"浅草","name:ja-Hira":"あさくさ","name:ja-Latn":"Asakusa","name:ko":"아사쿠사","name:ru":"Асакуса","network":"都営地下鉄","network:en":"Toei subway","note":"浅草線","operator":"東京都交通局","operator:en":"Toei","operator:wikidata":"Q1377135","public_transport":"station","railway":"station","ref":"A18","station":"subway","subway":"yes","wheelchair":"yes","wikidata":"Q800405","wikipedia":"ja:浅草駅","id":"node/7791605886"},"geometry":{"type":"Point","coordinates":[139.7965668,35.708959]}},{"type":"Feature","id":"node/7791605897","properties":{"colour":"violet","name":"蔵前","name:en":"Kuramae","name:ja":"蔵前","name:ja_kana":"くらまえ","name:ja_rm":"Kuramae","name:ko":"구라마에","network":"都営地下鉄","network:en":"Toei subway","operator":"東京都交通局","operator:en":"Toei","operator:wikidata":"Q1377135","public_transport":"station","railway":"station","ref":"E11","station":"subway","subway":"yes","wikidata":"Q112348","wikipedia":"ja:蔵前駅","id":"node/7791605897"},"geometry":{"type":"Point","coordinates":[139.7924102,35.7055187]}},{"type":"Feature","id":"node/7865838637","properties":{"maxspeed":"95","name":"浅草橋","name:en":"Asakusabashi","name:it":"Asakusabashi","name:ja":"浅草橋","name:ja-Hira":"あさくさばし","name:ja-Latn":"Asakusabashi","name:ko":"아사쿠사바시","name:ru":"Асакусабаси","operator":"東日本旅客鉄道","public_transport":"station","railway":"station","wikidata":"Q800404","wikipedia":"ja:浅草橋駅","id":"node/7865838637"},"geometry":{"type":"Point","coordinates":[139.784686,35.6974024]}}]}